FREGAT R/B
1 46736U 11037ND  20355.40634742 -.00001600 +00000-0 +00000-0 0  9991
2 46736 057.8123 098.7987 7593544 234.7777 356.2514 00.11061280000113
